NORAD_CAT_ID,OBJECT_NAME,OBJECT_TYPE,EPOCH,MEAN_MOTION,ECCENTRICITY,INCLINATION,RA_OF_ASC_NODE,ARG_OF_PERICENTER,MEAN_ANOMALY,BSTAR,MEAN_MOTION_DOT,MEAN_MOTION_DDOT,TLE_LINE0,TLE_LINE1,TLE_LINE2,SEMIMAJOR_AXIS,PERIOD,APOGEE,PERIGEE,DECAYED
53842.0,STARLINK-4754,PAYLOAD,2022-11-17 14:00:01,15.73175796,0.000438,53.2147,324.1298,3.1259,47.5292,0.00029359,0.00040756,0.0,0 STARLINK-4754,1 53842U 22114AA  22321.58334491  .00040756  00000-0  29359-3 0  9992,2 53842  53.2147 324.1298 0004380   3.1259  47.5292 15.73175796  1304,6727.964,91.535,352.776,346.88199999999995,0.0
53842.0,STARLINK-4754,PAYLOAD,2022-11-17 22:00:00,15.73216829,0.000401,53.2154,322.4778,1.6637,137.9129,-8.4907e-05,-0.00012537,0.0,0 STARLINK-4754,1 53842U 22114AA  22321.91667824 -.00012537  00000-0 -84907-4 0  9997,2 53842  53.2154 322.4778 0004010   1.6637 137.9129 15.73216829 10002,6727.847,91.532,352.41,347.014,0.0
53842.0,STARLINK-4754,PAYLOAD,2022-11-18 06:00:00,15.73274588,0.0003775,53.217,320.8294,349.3598,239.1612,-0.0043908,-0.00578603,0.0,0 STARLINK-4754,1 53842U 22114AA  22322.25001157 -.00578603  00000-0 -43908-2 0  9991,2 53842  53.2170 320.8294 0003775 349.3598 239.1612 15.73274588 10053,6727.683000000001,91.529,352.087,347.0080000000001,0.0
53842.0,STARLINK-4754,PAYLOAD,2022-11-18 14:00:01,15.7294609,0.0003968,53.2169,319.1796,308.7026,8.6018,-0.0083314,-0.01043317,0.0,0 STARLINK-4754,1 53842U 22114AA  22322.58334491 -.01043317  00000-0 -83314-2 0  9992,2 53842  53.2169 319.1796 0003968 308.7026   8.6018 15.72946090 10106,6728.619000000002,91.548,353.154,347.814,0.0
53842.0,STARLINK-4754,PAYLOAD,2022-11-18 22:00:00,15.72261567,0.0005995,53.2171,317.5302,283.0903,122.3485,-0.010103,-0.01229771,0.0,0 STARLINK-4754,1 53842U 22114AA  22322.91667824 -.01229771  00000-0 -10103-1 0  9993,2 53842  53.2171 317.5302 0005995 283.0903 122.3485 15.72261567  1308,6730.571999999999,91.588,356.472,348.402,0.0
53842.0,STARLINK-4754,PAYLOAD,2022-11-19 08:00:01,15.71174948,0.0006728,53.2174,315.4747,270.9198,333.4261,-0.0097157,-0.01120772,0.0,0 STARLINK-4754,1 53842U 22114AA  22323.33334491 -.01120772  00000-0 -97157-2 0  9997,2 53842  53.2174 315.4747 0006728 270.9198 333.4261 15.71174948 10220,6733.675,91.651,360.07,351.009,0.0
53842.0,STARLINK-4754,PAYLOAD,2022-11-19 14:00:01,15.70532493,0.0005763999999999,53.2164,314.2414,270.6049,308.3488,-0.0095989,-0.01081299,0.0,0 STARLINK-4754,1 53842U 22114AA  22323.58334491 -.01081299  00000-0 -95989-2 0  9995,2 53842  53.2164 314.2414 0005764 270.6049 308.3488 15.70532493  1301,6735.511,91.689,361.258,353.494,0.0
53842.0,STARLINK-4754,PAYLOAD,2022-11-19 22:00:00,15.69620558,0.0005057999999999,53.2167,312.5976,269.1195,35.143,-0.0085389,-0.00939095,0.0,0 STARLINK-4754,1 53842U 22114AA  22323.91667824 -.00939095  00000-0 -85389-2 0  9999,2 53842  53.2167 312.5976 0005058 269.1195  35.1430 15.69620558 10310,6738.12,91.742,363.393,356.577,0.0
53842.0,STARLINK-4754,PAYLOAD,2022-11-20 06:00:00,15.69024476,0.0002291,53.2172,310.9592,257.1449,131.2989,-0.011835,-0.0125141,0.0,0 STARLINK-4754,1 53842U 22114AA  22324.25001157 -.01251410  00000-0 -11835-1 0  9991,2 53842  53.2172 310.9592 0002291 257.1449 131.2989 15.69024476 10366,6739.826,91.777,363.235,360.147,0.0
53842.0,STARLINK-4754,PAYLOAD,2022-11-20 14:00:01,15.68179061,6.36e-05,53.2166,309.3208,16.6991,95.0721,-0.011849,-0.0121314,0.0,0 STARLINK-4754,1 53842U 22114AA  22324.58334491 -.01213140  00000-0 -11849-1 0  9990,2 53842  53.2166 309.3208 0000636  16.6991  95.0721 15.68179061 10424,6742.248000000001,91.826,364.542,363.684,0.0
53842.0,STARLINK-4754,PAYLOAD,2022-11-20 22:00:00,15.67311354,0.0001252999999999,53.2175,307.6828,69.7915,124.3365,-0.011443,-0.0113838,0.0,0 STARLINK-4754,1 53842U 22114AA  22324.91667824 -.01138380  00000-0 -11443-1 0  9998,2 53842  53.2175 307.6828 0001253  69.7915 124.3365 15.67311354  1303,6744.736999999999,91.877,367.447,365.756,0.0
53842.0,STARLINK-4754,PAYLOAD,2022-11-21 08:00:01,15.66294611,0.0001035,53.2175,305.6429,88.2728,297.3923,-0.011933,-0.01138775,0.0,0 STARLINK-4754,1 53842U 22114AA  22325.33334491 -.01138775  00000-0 -11933-1 0  9998,2 53842  53.2175 305.6429 0001035  88.2728 297.3923 15.66294611 10535,6747.655,91.937,370.218,368.822,0.0
53842.0,STARLINK-4754,PAYLOAD,2022-11-21 14:00:01,15.65695464,0.0001002999999999,53.2165,304.4181,78.4408,277.4092,-0.012403,-0.01153678,0.0,0 STARLINK-4754,1 53842U 22114AA  22325.58334491 -.01153678  00000-0 -12403-1 0  9997,2 53842  53.2165 304.4181 0001003  78.4408 277.4092 15.65695464  1308,6749.376,91.972,371.918,370.564,0.0
53842.0,STARLINK-4754,PAYLOAD,2022-11-21 22:00:00,15.64889419,0.0001085,53.2165,302.7865,76.7492,358.4943,-0.012915,-0.01162079,0.0,0 STARLINK-4754,1 53842U 22114AA  22325.91667824 -.01162079  00000-0 -12915-1 0  9996,2 53842  53.2165 302.7865 0001085  76.7492 358.4943 15.64889419  1301,6751.694,92.019,374.291,372.826,0.0
53842.0,STARLINK-4754,PAYLOAD,2022-11-22 08:00:01,15.63862853,0.0001146,53.2169,300.7539,91.2629,171.8562,-0.013301,-0.01149997,0.0,0 STARLINK-4754,1 53842U 22114AA  22326.33334491 -.01149997  00000-0 -13301-1 0  9998,2 53842  53.2169 300.7539 0001146  91.2629 171.8562 15.63862853 10691,6754.648,92.08,377.287,375.739,0.0
53842.0,STARLINK-4754,PAYLOAD,2022-11-22 14:00:01,15.63246364,0.000112,53.2168,299.533,83.2662,147.9124,-0.013539,-0.01143004,0.0,0 STARLINK-4754,1 53842U 22114AA  22326.58335648 -.01143004  00000-0 -13539-1 0  9996,2 53842  53.2168 299.5330 0001120  83.2662 147.9124 15.63246364  1303,6756.424,92.116,379.046,377.532,0.0
53842.0,STARLINK-4754,PAYLOAD,2022-11-22 22:00:00,15.62437831,0.0001024,53.2168,297.9076,79.6584,227.9154,-0.014028,-0.01146689,0.0,0 STARLINK-4754,1 53842U 22114AA  22326.91667824 -.01146689  00000-0 -14028-1 0  9993,2 53842  53.2168 297.9076 0001024  79.6584 227.9154 15.62437831  1309,6758.755,92.164,381.312,379.927,0.0
53842.0,STARLINK-4754,PAYLOAD,2022-11-23 08:00:01,15.61411642,0.0001166,53.2174,295.8822,76.7468,55.0358,-0.014445,-0.01135497,0.0,0 STARLINK-4754,1 53842U 22114AA  22327.33334491 -.01135497  00000-0 -14445-1 0  9999,2 53842  53.2174 295.8822 0001166  76.7468  55.0358 15.61411642 10855,6761.715999999999,92.224,384.369,382.792,0.0
53842.0,STARLINK-4754,PAYLOAD,2022-11-23 14:00:01,15.60809801,0.0001144,53.2168,294.6658,73.854,23.715,-0.014959,-0.01147433,0.0,0 STARLINK-4754,1 53842U 22114AA  22327.58334491 -.01147433  00000-0 -14959-1 0  9999,2 53842  53.2168 294.6658 0001144  73.8540  23.7150 15.60809801  1306,6763.454000000002,92.26,386.092,384.545,0.0
53842.0,STARLINK-4754,PAYLOAD,2022-11-23 22:00:00,15.60013533,0.0001228,53.2167,293.0465,78.2327,92.8573,-0.015732,-0.01167952,0.0,0 STARLINK-4754,1 53842U 22114AA  22327.91667824 -.01167952  00000-0 -15732-1 0  9993,2 53842  53.2167 293.0465 0001228  78.2327  92.8573 15.60013533  1304,6765.755,92.307,388.451,386.789,0.0
53842.0,STARLINK-4754,PAYLOAD,2022-11-24 08:00:01,15.58968814,9.69e-05,53.2171,291.0286,90.6028,261.0387,-0.015826,-0.01132375,0.0,0 STARLINK-4754,1 53842U 22114AA  22328.33334491 -.01132375  00000-0 -15826-1 0  9996,2 53842  53.2171 291.0286 0000969  90.6028 261.0387 15.58968814 11004,6768.776999999999,92.369,391.298,389.986,0.0
53842.0,STARLINK-4754,PAYLOAD,2022-11-24 14:00:01,15.58380308,0.0001052,53.2167,289.8166,81.6527,233.568,-0.0166639999999999,-0.01162638,0.0,0 STARLINK-4754,1 53842U 22114AA  22328.58334491 -.01162638  00000-0 -16664-1 0  9999,2 53842  53.2167 289.8166 0001052  81.6527 233.5680 15.58380308  1307,6770.481,92.404,393.059,391.634,0.0
53842.0,STARLINK-4754,PAYLOAD,2022-11-24 22:00:00,15.57569592,0.0001032,53.2166,288.203,74.4167,311.3989,-0.017211,-0.01164259,0.0,0 STARLINK-4754,1 53842U 22114AA  22328.91667824 -.01164259  00000-0 -17211-1 0  9995,2 53842  53.2166 288.2030 0001032  74.4167 311.3989 15.57569592  1307,6772.83,92.452,395.394,393.996,0.0
53842.0,STARLINK-4754,PAYLOAD,2022-11-25 08:00:01,15.56524952,0.0001213,53.2172,286.1925,91.3308,111.368,-0.017271,-0.01127212,0.0,0 STARLINK-4754,1 53842U 22114AA  22329.33334491 -.01127212  00000-0 -17271-1 0  9997,2 53842  53.2172 286.1925 0001213  91.3308 111.3680 15.56524952 11161,6775.86,92.514,398.547,396.903,0.0
53842.0,STARLINK-4754,PAYLOAD,2022-11-25 14:00:01,15.55917663,0.0001244,53.2173,284.9847,80.6308,83.4574,-0.017765,-0.01132834,0.0,0 STARLINK-4754,1 53842U 22114AA  22329.58334491 -.01132834  00000-0 -17765-1 0  9998,2 53842  53.2173 284.9847 0001244  80.6308  83.4574 15.55917663  1306,6777.623000000001,92.55,400.332,398.645,0.0
53842.0,STARLINK-4754,PAYLOAD,2022-11-25 22:00:00,15.55125355,0.0001293,53.2169,283.3774,86.8352,144.905,-0.018767,-0.01159132,0.0,0 STARLINK-4754,1 53842U 22114AA  22329.91667824 -.01159132  00000-0 -18767-1 0  9997,2 53842  53.2169 283.3774 0001293  86.8352 144.9050 15.55125355  1305,6779.925,92.597,402.667,400.914,0.0
53842.0,STARLINK-4754,PAYLOAD,2022-11-26 06:00:00,15.54319942,0.0001138,53.2173,281.7749,98.9062,199.5139,-0.019538,-0.01170078,0.0,0 STARLINK-4754,1 53842U 22114AA  22330.25001157 -.01170078  00000-0 -19538-1 0  9996,2 53842  53.2173 281.7749 0001138  98.9062 199.5139 15.54319942 11305,6782.267,92.645,404.904,403.36,0.0
53842.0,STARLINK-4754,PAYLOAD,2022-11-26 14:00:01,15.53475888,0.0001,53.2172,280.1706,84.0181,280.1263,-0.019412,-0.01131131,0.0,0 STARLINK-4754,1 53842U 22114AA  22330.58334491 -.01131131  00000-0 -19412-1 0  9990,2 53842  53.2172 280.1706 0001000  84.0181 280.1263 15.53475888  1301,6784.724,92.695,407.267,405.91,0.0
53842.0,STARLINK-4754,PAYLOAD,2022-11-26 22:00:00,15.52701574,0.0001066,53.2169,278.5694,76.9698,351.8847,-0.020973,-0.01200439,0.0,0 STARLINK-4754,1 53842U 22114AA  22330.91667824 -.01200439  00000-0 -20973-1 0  9998,2 53842  53.2169 278.5694 0001066  76.9698 351.8847 15.52701574  1306,6786.979,92.742,409.568,408.121,0.0
